$$SOE
2460154.500000000, A.D. 2023-Jul-29 00:00:00.0000, -4.176857029800174E+08, 1.662745993944046E+08, 2.479813503633166E+07,
2460161.500000000, A.D. 2023-Aug-05 00:00:00.0000, -4.220445779227899E+08, 1.570052444508297E+08, 2.491801674768954E+07,
2460168.500000000, A.D. 2023-Aug-12 00:00:00.0000, -4.261801545826183E+08, 1.476527784714219E+08, 2.502471281723545E+07,
2460175.500000000, A.D. 2023-Aug-19 00:00:00.0000, -4.300913464078774E+08, 1.382225299057777E+08, 2.511823148367392E+07,
2460182.500000000, A.D. 2023-Aug-26 00:00:00.0000, -4.337771864601566E+08, 1.287198131833853E+08, 2.519858730761908E+07,
2460189.500000000, A.D. 2023-Sep-02 00:00:00.0000, -4.372368254946678E+08, 1.191499265537470E+08, 2.526580103993394E+07,
2460196.500000000, A.D. 2023-Sep-09 00:00:00.0000, -4.404695300253921E+08, 1.095181499191121E+08, 2.531989947996023E+07,
2460203.500000000, A.D. 2023-Sep-16 00:00:00.0000, -4.434746802103152E+08, 9.982974259860459E+07, 2.536091530367581E+07,
2460210.500000000, A.D. 2023-Sep-23 00:00:00.0000, -4.462517671436123E+08, 9.008994130723287E+07, 2.538888684723641E+07,
2460217.500000000, A.D. 2023-Sep-30 00:00:00.0000, -4.488003898973231E+08, 8.030395953688166E+07, 2.540385797456930E+07,
2460224.500000000, A.D. 2023-Oct-07 00:00:00.0000, -4.511202546699606E+08, 7.047698779253274E+07, 2.540587820076371E+07,
2460231.500000000, A.D. 2023-Oct-14 00:00:00.0000, -4.532111750069039E+08, 6.061419136770678E+07, 2.539500270544503E+07,
2460238.500000000, A.D. 2023-Oct-21 00:00:00.0000, -4.550730698661443E+08, 5.072070725996392E+07, 2.537129207136941E+07,
2460245.500000000, A.D. 2023-Oct-28 00:00:00.0000, -4.567059609538131E+08, 4.080164248283910E+07, 2.533481206387053E+07,
2460252.500000000, A.D. 2023-Nov-04 00:00:00.0000, -4.581099705817945E+08, 3.086207299906600E+07, 2.528563350309127E+07,
2460259.500000000, A.D. 2023-Nov-11 00:00:00.0000, -4.592853198733928E+08, 2.090704267167349E+07, 2.522383216402173E+07,
2460266.500000000, A.D. 2023-Nov-18 00:00:00.0000, -4.602323271001659E+08, 1.094156216578783E+07, 2.514948867932159E+07,
2460273.500000000, A.D. 2023-Nov-25 00:00:00.0000, -4.609514060789391E+08, 9.706078206352890E+05, 2.506268844040655E+07,
2460280.500000000, A.D. 2023-Dec-02 00:00:00.0000, -4.614430646025337E+08, -9.000879522698682E+06, 2.496352149354418E+07,
2460287.500000000, A.D. 2023-Dec-09 00:00:00.0000, -4.617079028281491E+08, -1.896799579978117E+07, 2.485208241918122E+07,
2460294.500000000, A.D. 2023-Dec-16 00:00:00.0000, -4.617466113374053E+08, -2.892587509778320E+07, 2.472847016925037E+07,
2460301.500000000, A.D. 2023-Dec-23 00:00:00.0000, -4.615599685204053E+08, -3.886969044171966E+07, 2.459278788665957E+07,
2460308.500000000, A.D. 2023-Dec-30 00:00:00.0000, -4.611488386237685E+08, -4.879465294505984E+07, 2.444514291547202E+07,
2460315.500000000, A.D. 2024-Jan-06 00:00:00.0000, -4.605141722348567E+08, -5.869601168845619E+07, 2.428564697113933E+07,
2460322.500000000, A.D. 2024-Jan-13 00:00:00.0000, -4.596570060298818E+08, -6.856905613649134E+07, 2.411441603186218E+07,
2460329.500000000, A.D. 2024-Jan-20 00:00:00.0000, -4.585784605613669E+08, -7.840911801065187E+07, 2.393157009070872E+07,
2460336.500000000, A.D. 2024-Jan-27 00:00:00.0000, -4.572797381124859E+08, -8.821157197054592E+07, 2.373723300755194E+07,
2460343.500000000, A.D. 2024-Feb-03 00:00:00.0000, -4.557621210481271E+08, -9.797183605683409E+07, 2.353153242229993E+07,
2460350.500000000, A.D. 2024-Feb-10 00:00:00.0000, -4.540269703884097E+08, -1.076853721903899E+08, 2.331459968003713E+07,
2460357.500000000, A.D. 2024-Feb-17 00:00:00.0000, -4.520757244682036E+08, -1.173476867216615E+08, 2.308656975593508E+07,
2460364.500000000, A.D. 2024-Feb-24 00:00:00.0000, -4.499098976474488E+08, -1.269543310169661E+08, 2.284758117775639E+07,
2460371.500000000, A.D. 2024-Mar-02 00:00:00.0000, -4.475310790427612E+08, -1.365009021160183E+08, 2.259777594049308E+07,
2460378.500000000, A.D. 2024-Mar-09 00:00:00.0000, -4.449409311410542E+08, -1.459830435255969E+08, 2.233729939515572E+07,
2460385.500000000, A.D. 2024-Mar-16 00:00:00.0000, -4.421411878993068E+08, -1.553964459541461E+08, 2.206630009147979E+07,
2460392.500000000, A.D. 2024-Mar-23 00:00:00.0000, -4.391336524331720E+08, -1.647368468801862E+08, 2.178492967456831E+07,
2460399.500000000, A.D. 2024-Mar-30 00:00:00.0000, -4.359201965343826E+08, -1.740000289834781E+08, 2.149334303867986E+07,
2460406.500000000, A.D. 2024-Apr-06 00:00:00.0000, -4.325027617607150E+08, -1.831818208092909E+08, 2.119169843930730E+07,
2460413.500000000, A.D. 2024-Apr-13 00:00:00.0000, -4.288833585479487E+08, -1.922780988313234E+08, 2.088015730616421E+07,
2460420.500000000, A.D. 2024-Apr-20 00:00:00.0000, -4.250640642948029E+08, -2.012847882373906E+08, 2.055888406315257E+07,
2460427.500000000, A.D. 2024-Apr-27 00:00:00.0000, -4.210470219353088E+08, -2.101978630007173E+08, 2.022804604846093E+07,
2460434.500000000, A.D. 2024-May-04 00:00:00.0000, -4.168344389089262E+08, -2.190133459429723E+08, 1.988781346912850E+07,
2460441.500000000, A.D. 2024-May-11 00:00:00.0000, -4.124285862897000E+08, -2.277273088938225E+08, 1.953835935992998E+07,
2460448.500000000, A.D. 2024-May-18 00:00:00.0000, -4.078317979927204E+08, -2.363358729277443E+08, 1.917985954100911E+07,
2460455.500000000, A.D. 2024-May-25 00:00:00.0000, -4.030464700333377E+08, -2.448352086869597E+08, 1.881249257165308E+07,
2460462.500000000, A.D. 2024-Jun-01 00:00:00.0000, -3.980750597791916E+08, -2.532215368493439E+08, 1.843643969026728E+07,
2460469.500000000, A.D. 2024-Jun-08 00:00:00.0000, -3.929200849483935E+08, -2.614911287654735E+08, 1.805188471631162E+07,
2460476.500000000, A.D. 2024-Jun-15 00:00:00.0000, -3.875841219537328E+08, -2.696403067207196E+08, 1.765901392231952E+07,
2460483.500000000, A.D. 2024-Jun-22 00:00:00.0000, -3.820698045969220E+08, -2.776654426480368E+08, 1.725801606441043E+07,
2460490.500000000, A.D. 2024-Jun-29 00:00:00.0000, -3.763798252329050E+08, -2.855629571135777E+08, 1.684908261717795E+07,
2460497.500000000, A.D. 2024-Jul-06 00:00:00.0000, -3.705169357586688E+08, -2.933293210485766E+08, 1.643240776849565E+07,
2460504.500000000, A.D. 2024-Jul-13 00:00:00.0000, -3.644839464774998E+08, -3.009610574051766E+08, 1.600818822642164E+07,
2460511.500000000, A.D. 2024-Jul-20 00:00:00.0000, -3.582837248234568E+08, -3.084547415881027E+08, 1.557662311430782E+07,
2460518.500000000, A.D. 2024-Jul-27 00:00:00.0000, -3.519191946001999E+08, -3.158070016223688E+08, 1.513791393576920E+07,
2460525.500000000, A.D. 2024-Aug-03 00:00:00.0000, -3.453933354595079E+08, -3.230145184335372E+08, 1.469226455359899E+07,
2460532.500000000, A.D. 2024-Aug-10 00:00:00.0000, -3.387091824527500E+08, -3.300740262469984E+08, 1.423988116679083E+07,
2460539.500000000, A.D. 2024-Aug-17 00:00:00.0000, -3.318698256076417E+08, -3.369823130862590E+08, 1.378097228286627E+07,
2460546.500000000, A.D. 2024-Aug-24 00:00:00.0000, -3.248784095022188E+08, -3.437362213935134E+08, 1.331574868089192E+07,
2460553.500000000, A.D. 2024-Aug-31 00:00:00.0000, -3.177381327199215E+08, -3.503326488342983E+08, 1.284442334929329E+07,
2460560.500000000, A.D. 2024-Sep-07 00:00:00.0000, -3.104522468192695E+08, -3.567685491594968E+08, 1.236721137497056E+07,
2460567.500000000, A.D. 2024-Sep-14 00:00:00.0000, -3.030240547309400E+08, -3.630409321279341E+08, 1.188432985695815E+07,
2460574.500000000, A.D. 2024-Sep-21 00:00:00.0000, -2.954569106078584E+08, -3.691468620762423E+08, 1.139599806403017E+07,
2460581.500000000, A.D. 2024-Sep-28 00:00:00.0000, -2.877542216121716E+08, -3.750834583647071E+08, 1.090243761673976E+07,
2460588.500000000, A.D. 2024-Oct-05 00:00:00.0000, -2.799194479675792E+08, -3.808478977007582E+08, 1.040387235712385E+07,
2460595.500000000, A.D. 2024-Oct-12 00:00:00.0000, -2.719561016376202E+08, -3.864374153631118E+08, 9.900528182604834E+06,
2460602.500000000, A.D. 2024-Oct-19 00:00:00.0000, -2.638677453809586E+08, -3.918493055988761E+08, 9.392632982540160E+06,
2460609.500000000, A.D. 2024-Oct-26 00:00:00.0000, -2.556579922154750E+08, -3.970809219954188E+08, 8.880416614838570E+06,
2460616.500000000, A.D. 2024-Nov-02 00:00:00.0000, -2.473305050324669E+08, -4.021296779755269E+08, 8.364110886807680E+06,
2460623.500000000, A.D. 2024-Nov-09 00:00:00.0000, -2.388889962626143E+08, -4.069930473955721E+08, 7.843949532956213E+06,
2460630.500000000, A.D. 2024-Nov-16 00:00:00.0000, -2.303372275661077E+08, -4.116685652470553E+08, 7.320168187349558E+06,
2460637.500000000, A.D. 2024-Nov-23 00:00:00.0000, -2.216790094983801E+08, -4.161538285119913E+08, 6.793004342135906E+06,
2460644.500000000, A.D. 2024-Nov-30 00:00:00.0000, -2.129182009414518E+08, -4.204464972152272E+08, 6.262697269669056E+06,
2460651.500000000, A.D. 2024-Dec-07 00:00:00.0000, -2.040587078797095E+08, -4.245442952534429E+08, 5.729487904158115E+06,
2460658.500000000, A.D. 2024-Dec-14 00:00:00.0000, -1.951044822068826E+08, -4.284450097769324E+08, 5.193618846064210E+06,
2460665.500000000, A.D. 2024-Dec-21 00:00:00.0000, -1.860595228803771E+08, -4.321464903646491E+08, 4.655334600497007E+06,
2460672.500000000, A.D. 2024-Dec-28 00:00:00.0000, -1.769278774478372E+08, -4.356466509604530E+08, 4.114881626159877E+06,
2460679.500000000, A.D. 2025-Jan-04 00:00:00.0000, -1.677136413468962E+08, -4.389434721961001E+08, 3.572508150905073E+06,
2460686.500000000, A.D. 2025-Jan-11 00:00:00.0000, -1.584209567980267E+08, -4.420350024421853E+08, 3.028464056799650E+06,
2460693.500000000, A.D. 2025-Jan-18 00:00:00.0000, -1.490540122057002E+08, -4.449193585059786E+08, 2.483000843917221E+06,
2460700.500000000, A.D. 2025-Jan-25 00:00:00.0000, -1.396170418222249E+08, -4.475947264505234E+08, 1.936371611891657E+06,
2460707.500000000, A.D. 2025-Feb-01 00:00:00.0000, -1.301143254822534E+08, -4.500593625650121E+08, 1.388831039487481E+06,
2460714.500000000, A.D. 2025-Feb-08 00:00:00.0000, -1.205501883468657E+08, -4.523115944670576E+08, 8.406353584930301E+05,
2460721.500000000, A.D. 2025-Feb-15 00:00:00.0000, -1.109290006259108E+08, -4.543498223576100E+08, 2.920423177184761E+05,
$$EOE